{
  "type": "FeatureCollection",
  "features": [
    {
      "type": "Feature",
      "properties": {
        "norad_id": 24876,
        "name": "GPS BIIR-2  (PRN 13)",
        "group": "gnss",
        "lat": -46.90835573124995,
        "lon": 59.677805111095985,
        "alt_km": 20309.330022195183,
        "timestamp": "2025-12-08T03:50:07.239813+00:00",
        "meta_object_name": "GPS BIIR-2  (PRN 13)",
        "meta_object_id": "1997-035A",
        "meta_epoch": "2025-12-07T05:57:31.204512",
        "meta_mean_motion": 2.005635,
        "meta_eccentricity": 0.00967197,
        "meta_inclination": 55.8926,
        "meta_ra_of_asc_node": 106.0837,
        "meta_arg_of_pericenter": 57.0181,
        "meta_mean_anomaly": 303.8748,
        "meta_ephemeris_type": 0,
        "meta_classification_type": "U",
        "meta_norad_cat_id": 24876,
        "meta_element_set_no": 999,
        "meta_rev_at_epoch": 20810,
        "meta_bstar": 0,
        "meta_mean_motion_dot": 9e-08,
        "meta_mean_motion_ddot": 0,
        "tle_line1": "1 24876U 97035A   25341.24827783  .00000009  00000+0  00000+0 0  9994",
        "tle_line2": "2 24876  55.8926 106.0837 0096719  57.0181 303.8748  2.00563500208108"
      },
      "geometry": {
        "type": "Point",
        "coordinates": [
          59.677805111095985,
          -46.90835573124995
        ]
      }
    },
    {
      "type": "Feature",
      "properties": {
        "norad_id": 26360,
        "name": "GPS BIIR-4  (PRN 20)",
        "group": "gnss",
        "lat": 25.05410205937288,
        "lon": 46.11684803487174,
        "alt_km": 20267.90097947638,
        "timestamp": "2025-12-08T03:50:07.239866+00:00",
        "meta_object_name": "GPS BIIR-4  (PRN 20)",
        "meta_object_id": "2000-025A",
        "meta_epoch": "2025-12-07T03:09:12.331872",
        "meta_mean_motion": 2.00568032,
        "meta_eccentricity": 0.00388288,
        "meta_inclination": 55.0418,
        "meta_ra_of_asc_node": 27.0648,
        "meta_arg_of_pericenter": 241.4486,
        "meta_mean_anomaly": 126.9081,
        "meta_ephemeris_type": 0,
        "meta_classification_type": "U",
        "meta_norad_cat_id": 26360,
        "meta_element_set_no": 999,
        "meta_rev_at_epoch": 18742,
        "meta_bstar": 0,
        "meta_mean_motion_dot": -8.1e-07,
        "meta_mean_motion_ddot": 0,
        "tle_line1": "1 26360U 00025A   25341.13139273 -.00000081  00000+0  00000+0 0  9996",
        "tle_line2": "2 26360  55.0418  27.0648 0038828 241.4486 126.9081  2.00568032187422"
      },
      "geometry": {
        "type": "Point",
        "coordinates": [
          46.11684803487174,
          25.05410205937288
        ]
      }
    },
    {
      "type": "Feature",
      "properties": {
        "norad_id": 26407,
        "name": "GPS BIIR-5  (PRN 22)",
        "group": "gnss",
        "lat": -38.20149955204558,
        "lon": 76.34713589921112,
        "alt_km": 20082.920737908888,
        "timestamp": "2025-12-08T03:50:07.239884+00:00",
        "meta_object_name": "GPS BIIR-5  (PRN 22)",
        "meta_object_id": "2000-040A",
        "meta_epoch": "2025-12-07T02:24:01.548288",
        "meta_mean_motion": 2.00567789,
        "meta_eccentricity": 0.01263153,
        "meta_inclination": 54.8922,
        "meta_ra_of_asc_node": 222.7933,
        "meta_arg_of_pericenter": 301.7055,
        "meta_mean_anomaly": 243.5801,
        "meta_ephemeris_type": 0,
        "meta_classification_type": "U",
        "meta_norad_cat_id": 26407,
        "meta_element_set_no": 999,
        "meta_rev_at_epoch": 18609,
        "meta_bstar": 0,
        "meta_mean_motion_dot": 3.3e-07,
        "meta_mean_motion_ddot": 0,
        "tle_line1": "1 26407U 00040A   25341.10001792  .00000033  00000+0  00000+0 0  9992",
        "tle_line2": "2 26407  54.8922 222.7933 0126315 301.7055 243.5801  2.00567789186099"
      },
      "geometry": {
        "type": "Point",
        "coordinates": [
          76.34713589921112,
          -38.20149955204558
        ]
      }
    },
    {
      "type": "Feature",
      "properties": {
        "norad_id": 27663,
        "name": "GPS BIIR-8  (PRN 16)",
        "group": "gnss",
        "lat": 4.134372944948573,
        "lon": -134.5209903127539,
        "alt_km": 19909.517454029035,
        "timestamp": "2025-12-08T03:50:07.239900+00:00",
        "meta_object_name": "GPS BIIR-8  (PRN 16)",
        "meta_object_id": "2003-005A",
        "meta_epoch": "2025-12-06T16:05:33.383328",
        "meta_mean_motion": 2.00571142,
        "meta_eccentricity": 0.01472147,
        "meta_inclination": 54.9248,
        "meta_ra_of_asc_node": 222.6198,
        "meta_arg_of_pericenter": 51.718,
        "meta_mean_anomaly": 319.2598,
        "meta_ephemeris_type": 0,
        "meta_classification_type": "U",
        "meta_norad_cat_id": 27663,
        "meta_element_set_no": 999,
        "meta_rev_at_epoch": 16745,
        "meta_bstar": 0,
        "meta_mean_motion_dot": 3.9e-07,
        "meta_mean_motion_ddot": 0,
        "tle_line1": "1 27663U 03005A   25340.67052527  .00000039  00000+0  00000+0 0  9990",
        "tle_line2": "2 27663  54.9248 222.6198 0147214  51.7180 319.2598  2.00571142167451"
      },
      "geometry": {
        "type": "Point",
        "coordinates": [
          -134.5209903127539,
          4.134372944948573
        ]
      }
    },
    {
      "type": "Feature",
      "properties": {
        "norad_id": 28190,
        "name": "GPS BIIR-11 (PRN 19)",
        "group": "gnss",
        "lat": 12.02824334977638,
        "lon": 94.8080871135439,
        "alt_km": 19893.481184477496,
        "timestamp": "2025-12-08T03:50:07.239914+00:00",
        "meta_object_name": "GPS BIIR-11 (PRN 19)",
        "meta_object_id": "2004-009A",
        "meta_epoch": "2025-12-07T01:08:17.943360",
        "meta_mean_motion": 2.00560868,
        "meta_eccentricity": 0.01082706,
        "meta_inclination": 54.9909,
        "meta_ra_of_asc_node": 283.4484,
        "meta_arg_of_pericenter": 167.5454,
        "meta_mean_anomaly": 274.5396,
        "meta_ephemeris_type": 0,
        "meta_classification_type": "U",
        "meta_norad_cat_id": 28190,
        "meta_element_set_no": 999,
        "meta_rev_at_epoch": 15909,
        "meta_bstar": 0,
        "meta_mean_motion_dot": -4.1e-07,
        "meta_mean_motion_ddot": 0,
        "tle_line1": "1 28190U 04009A   25341.04742990 -.00000041  00000+0  00000+0 0  9997",
        "tle_line2": "2 28190  54.9909 283.4484 0108270 167.5454 274.5396  2.00560868159096"
      },
      "geometry": {
        "type": "Point",
        "coordinates": [
          94.8080871135439,
          12.02824334977638
        ]
      }
    },
    {
      "type": "Feature",
      "properties": {
        "norad_id": 28474,
        "name": "GPS BIIR-13 (PRN 02)",
        "group": "gnss",
        "lat": -34.31324567024377,
        "lon": -179.1369212085827,
        "alt_km": 20143.5659756253,
        "timestamp": "2025-12-08T03:50:07.239928+00:00",
        "meta_object_name": "GPS BIIR-13 (PRN 02)",
        "meta_object_id": "2004-045A",
        "meta_epoch": "2025-12-07T07:43:52.701600",
        "meta_mean_motion": 2.00569101,
        "meta_eccentricity": 0.0170659,
        "meta_inclination": 55.2433,
        "meta_ra_of_asc_node": 332.6237,
        "meta_arg_of_pericenter": 309.0153,
        "meta_mean_anomaly": 31.3735,
        "meta_ephemeris_type": 0,
        "meta_classification_type": "U",
        "meta_norad_cat_id": 28474,
        "meta_element_set_no": 999,
        "meta_rev_at_epoch": 15457,
        "meta_bstar": 0,
        "meta_mean_motion_dot": -8.1e-07,
        "meta_mean_motion_ddot": 0,
        "tle_line1": "1 28474U 04045A   25341.32213775 -.00000081  00000+0  00000+0 0  9991",
        "tle_line2": "2 28474  55.2433 332.6237 0170659 309.0153  31.3735  2.00569101154572"
      },
      "geometry": {
        "type": "Point",
        "coordinates": [
          -179.1369212085827,
          -34.31324567024377
        ]
      }
    },
    {
      "type": "Feature",
      "properties": {
        "norad_id": 28874,
        "name": "GPS BIIRM-1 (PRN 17)",
        "group": "gnss",
        "lat": -2.124944964333252,
        "lon": 102.3544526566249,
        "alt_km": 20302.301555183818,
        "timestamp": "2025-12-08T03:50:07.239941+00:00",
        "meta_object_name": "GPS BIIRM-1 (PRN 17)",
        "meta_object_id": "2005-038A",
        "meta_epoch": "2025-12-07T01:11:23.790624",
        "meta_mean_motion": 2.00578663,
        "meta_eccentricity": 0.01318312,
        "meta_inclination": 55.0371,
        "meta_ra_of_asc_node": 280.93,
        "meta_arg_of_pericenter": 293.3412,
        "meta_mean_anomaly": 168.926,
        "meta_ephemeris_type": 0,
        "meta_classification_type": "U",
        "meta_norad_cat_id": 28874,
        "meta_element_set_no": 999,
        "meta_rev_at_epoch": 14798,
        "meta_bstar": 0,
        "meta_mean_motion_dot": -3.8e-07,
        "meta_mean_motion_ddot": 0,
        "tle_line1": "1 28874U 05038A   25341.04958091 -.00000038  00000+0  00000+0 0  9996",
        "tle_line2": "2 28874  55.0371 280.9300 0131831 293.3412 168.9260  2.00578663147983"
      },
      "geometry": {
        "type": "Point",
        "coordinates": [
          102.3544526566249,
          -2.124944964333252
        ]
      }
    }
  ]
}